[{"OBJECT_NAME":"STARLINK-5442","OBJECT_ID":"2022-175AC","EPOCH":"2026-03-09T23:06:08.894016","MEAN_MOTION":15.08838201,"ECCENTRICITY":0.0001322,"INCLINATION":53.2184,"RA_OF_ASC_NODE":42.6538,"ARG_OF_PERICENTER":92.9354,"MEAN_ANOMALY":267.179,"EPHEMERIS_TYPE":0,"CLASSIFICATION_TYPE":"U","NORAD_CAT_ID":54784,"ELEMENT_SET_NO":999,"REV_AT_EPOCH":17996,"BSTAR":1.9000892e-5,"MEAN_MOTION_DOT":1.5e-7,"MEAN_MOTION_DDOT":0},{"OBJECT_NAME":"FENGYUN 1C DEB","OBJECT_ID":"1999-025DCC","EPOCH":"2026-03-06T20:17:15.373248","MEAN_MOTION":14.96028569,"ECCENTRICITY":0.01060199,"INCLINATION":97.3493,"RA_OF_ASC_NODE":89.8611,"ARG_OF_PERICENTER":314.0813,"MEAN_ANOMALY":45.1717,"EPHEMERIS_TYPE":0,"CLASSIFICATION_TYPE":"U","NORAD_CAT_ID":32464,"ELEMENT_SET_NO":999,"REV_AT_EPOCH":62048,"BSTAR":0.0018930434,"MEAN_MOTION_DOT":0.00023806,"MEAN_MOTION_DDOT":0}]
